{
  "norad_id": 59902,
  "name": "STARLINK-31914",
  "history": [
    {
      "epoch": "2026-04-14T18:42:42.859872Z",
      "apogee_km": 483.8786470353125,
      "perigee_km": 482.2168680870309,
      "latitude_deg": 9.858320668508876e-06,
      "longitude_deg": 158.182444577359,
      "height_km": 482.832938958241,
      "semi_major_axis_km": 6861.184757561171,
      "eccentricity": 0.0001211,
      "inclination_deg": 43.0014,
      "raan_deg": 281.8122,
      "arg_perigee_deg": 269.4149,
      "mean_anomaly_deg": 90.6564,
      "mean_motion_rev_day": 15.27580447
    },
    {
      "epoch": "2026-04-15T18:15:03.877056Z",
      "apogee_km": 483.904180633107,
      "perigee_km": 482.2149540382288,
      "latitude_deg": 2.942356682755542e-05,
      "longitude_deg": 158.58877627665353,
      "height_km": 482.820361894901,
      "semi_major_axis_km": 6861.196567335668,
      "eccentricity": 0.0001231,
      "inclination_deg": 43.0011,
      "raan_deg": 276.2728,
      "arg_perigee_deg": 271.0778,
      "mean_anomaly_deg": 88.9933,
      "mean_motion_rev_day": 15.27576503
    },
    {
      "epoch": "2026-04-16T17:47:24.838080Z",
      "apogee_km": 483.8629113048037,
      "perigee_km": 482.2573911714144,
      "latitude_deg": 3.217418572550402e-05,
      "longitude_deg": 158.99492471243272,
      "height_km": 482.84237261870356,
      "semi_major_axis_km": 6861.197151238109,
      "eccentricity": 0.000117,
      "inclination_deg": 43.0003,
      "raan_deg": 270.733,
      "arg_perigee_deg": 269.5943,
      "mean_anomaly_deg": 90.4775,
      "mean_motion_rev_day": 15.27576308
    },
    {
      "epoch": "2026-04-17T17:19:45.572736Z",
      "apogee_km": 483.9513446455012,
      "perigee_km": 482.1651010811811,
      "latitude_deg": -4.7909079320506155e-05,
      "longitude_deg": 159.40393003951482,
      "height_km": 482.78341060127366,
      "semi_major_axis_km": 6861.195222863341,
      "eccentricity": 0.00013017,
      "inclination_deg": 43.0018,
      "raan_deg": 265.1952,
      "arg_perigee_deg": 273.3149,
      "mean_anomaly_deg": 86.7553,
      "mean_motion_rev_day": 15.27576952
    },
    {
      "epoch": "2026-04-18T16:52:05.719872Z",
      "apogee_km": 483.89300917968103,
      "perigee_km": 482.1832043430759,
      "latitude_deg": -6.30273954084968e-05,
      "longitude_deg": 159.81415833862286,
      "height_km": 482.84176147009623,
      "semi_major_axis_km": 6861.175106761379,
      "eccentricity": 0.0001246,
      "inclination_deg": 43.0017,
      "raan_deg": 259.6561,
      "arg_perigee_deg": 268.1975,
      "mean_anomaly_deg": 91.8733,
      "mean_motion_rev_day": 15.2758367
    }
  ]
}